[{"OBJECT_NAME":"STARLINK-1928","OBJECT_ID":"2020-074V","EPOCH":"2026-03-09T20:00:59.714208","MEAN_MOTION":15.66832435,"ECCENTRICITY":0.00029858,"INCLINATION":53.0444,"RA_OF_ASC_NODE":283.9219,"ARG_OF_PERICENTER":49.9674,"MEAN_ANOMALY":310.1603,"EPHEMERIS_TYPE":0,"CLASSIFICATION_TYPE":"U","NORAD_CAT_ID":46758,"ELEMENT_SET_NO":999,"REV_AT_EPOCH":29722,"BSTAR":0.00084797798,"MEAN_MOTION_DOT":0.00091787,"MEAN_MOTION_DDOT":0},{"OBJECT_NAME":"SZ-20 MODULE","OBJECT_ID":"2025-082C","EPOCH":"2026-03-09T16:40:36.867360","MEAN_MOTION":15.64075536,"ECCENTRICITY":0.00095477,"INCLINATION":41.4776,"RA_OF_ASC_NODE":206.9715,"ARG_OF_PERICENTER":333.0027,"MEAN_ANOMALY":27.0316,"EPHEMERIS_TYPE":0,"CLASSIFICATION_TYPE":"U","NORAD_CAT_ID":67481,"ELEMENT_SET_NO":999,"REV_AT_EPOCH":27762,"BSTAR":0.00029135549,"MEAN_MOTION_DOT":0.00028207,"MEAN_MOTION_DDOT":0}]
